{
  "type": "FeatureCollection",
  "features": [
    {
      "type": "Feature",
      "properties": {
        "norad_id": 66174,
        "name": "HTV-X1",
        "group": "stations",
        "lat": 4.72249098735157,
        "lon": -105.91668117484244,
        "alt_km": 418.6649341400562,
        "timestamp": "2025-12-25T19:00:38.111283+00:00",
        "meta_object_name": "HTV-X1",
        "meta_object_id": "2025-241A",
        "meta_epoch": "2025-12-25T05:52:58.411200",
        "meta_mean_motion": 15.49803499,
        "meta_eccentricity": 0.00032029,
        "meta_inclination": 51.6316,
        "meta_ra_of_asc_node": 80.5467,
        "meta_arg_of_pericenter": 298.8467,
        "meta_mean_anomaly": 61.22,
        "meta_ephemeris_type": 0,
        "meta_classification_type": "U",
        "meta_norad_cat_id": 66174,
        "meta_element_set_no": 999,
        "meta_rev_at_epoch": 51,
        "meta_bstar": 0.00025322562,
        "meta_mean_motion_dot": 0.00013923,
        "meta_mean_motion_ddot": 0,
        "tle_line1": "1 66174U 25241A   25359.24512050  .00013923  00000+0  25323-3 0  9996",
        "tle_line2": "2 66174  51.6316  80.5467 0003202 298.8467  61.2200 15.49803499   518"
      },
      "geometry": {
        "type": "Point",
        "coordinates": [
          -105.91668117484244,
          4.72249098735157
        ]
      }
    },
    {
      "type": "Feature",
      "properties": {
        "norad_id": 66515,
        "name": "SZ-21 MODULE",
        "group": "stations",
        "lat": 25.2147529825525,
        "lon": 84.17284904059774,
        "alt_km": 377.34463195580884,
        "timestamp": "2025-12-25T19:00:38.111294+00:00",
        "meta_object_name": "SZ-21 MODULE",
        "meta_object_id": "2025-246C",
        "meta_epoch": "2025-12-25T04:36:53.602848",
        "meta_mean_motion": 15.63137538,
        "meta_eccentricity": 0.00045892,
        "meta_inclination": 41.4767,
        "meta_ra_of_asc_node": 300.0489,
        "meta_arg_of_pericenter": 327.9877,
        "meta_mean_anomaly": 32.0683,
        "meta_ephemeris_type": 0,
        "meta_classification_type": "U",
        "meta_norad_cat_id": 66515,
        "meta_element_set_no": 999,
        "meta_rev_at_epoch": 639,
        "meta_bstar": 0.00031272419,
        "meta_mean_motion_dot": 0.00029146,
        "meta_mean_motion_ddot": 0,
        "tle_line1": "1 66515U 25246C   25359.19228707  .00029146  00000+0  31272-3 0  9991",
        "tle_line2": "2 66515  41.4767 300.0489 0004589 327.9877  32.0683 15.63137538  6399"
      },
      "geometry": {
        "type": "Point",
        "coordinates": [
          84.17284904059774,
          25.2147529825525
        ]
      }
    },
    {
      "type": "Feature",
      "properties": {
        "norad_id": 66645,
        "name": "SHENZHOU-22",
        "group": "stations",
        "lat": 39.143086420675836,
        "lon": 4.605137592810751,
        "alt_km": 380.44499959827226,
        "timestamp": "2025-12-25T19:00:38.111304+00:00",
        "meta_object_name": "SHENZHOU-22",
        "meta_object_id": "2025-272A",
        "meta_epoch": "2025-12-25T04:52:13.170144",
        "meta_mean_motion": 15.59668525,
        "meta_eccentricity": 0.0008299,
        "meta_inclination": 41.4684,
        "meta_ra_of_asc_node": 301.0153,
        "meta_arg_of_pericenter": 140.7074,
        "meta_mean_anomaly": 219.4368,
        "meta_ephemeris_type": 0,
        "meta_classification_type": "U",
        "meta_norad_cat_id": 66645,
        "meta_element_set_no": 999,
        "meta_rev_at_epoch": 26598,
        "meta_bstar": 0.00024182625,
        "meta_mean_motion_dot": 0.000196,
        "meta_mean_motion_ddot": 0,
        "tle_line1": "1 66645U 25272A   25359.20293021  .00019600  00000+0  24183-3 0  9994",
        "tle_line2": "2 66645  41.4684 301.0153 0008299 140.7074 219.4368 15.59668525265985"
      },
      "geometry": {
        "type": "Point",
        "coordinates": [
          4.605137592810751,
          39.143086420675836
        ]
      }
    },
    {
      "type": "Feature",
      "properties": {
        "norad_id": 66664,
        "name": "SOYUZ-MS 28",
        "group": "stations",
        "lat": 4.722489420683037,
        "lon": -105.91667992425741,
        "alt_km": 418.66493429759703,
        "timestamp": "2025-12-25T19:00:38.111314+00:00",
        "meta_object_name": "SOYUZ-MS 28",
        "meta_object_id": "2025-275A",
        "meta_epoch": "2025-12-25T05:52:58.411200",
        "meta_mean_motion": 15.49803499,
        "meta_eccentricity": 0.00032029,
        "meta_inclination": 51.6316,
        "meta_ra_of_asc_node": 80.5467,
        "meta_arg_of_pericenter": 298.8467,
        "meta_mean_anomaly": 61.22,
        "meta_ephemeris_type": 0,
        "meta_classification_type": "U",
        "meta_norad_cat_id": 66664,
        "meta_element_set_no": 999,
        "meta_rev_at_epoch": 128,
        "meta_bstar": 0.00025322562,
        "meta_mean_motion_dot": 0.00013923,
        "meta_mean_motion_ddot": 0,
        "tle_line1": "1 66664U 25275A   25359.24512050  .00013923  00000+0  25323-3 0  9997",
        "tle_line2": "2 66664  51.6316  80.5467 0003202 298.8467  61.2200 15.49803499  1287"
      },
      "geometry": {
        "type": "Point",
        "coordinates": [
          -105.91667992425741,
          4.722489420683037
        ]
      }
    },
    {
      "type": "Feature",
      "properties": {
        "norad_id": 66906,
        "name": "1998-067XS",
        "group": "stations",
        "lat": -50.89516343530642,
        "lon": -25.265207623150214,
        "alt_km": 415.74098168956607,
        "timestamp": "2025-12-25T19:00:38.111325+00:00",
        "meta_object_name": "1998-067XS",
        "meta_object_id": "1998-067XS",
        "meta_epoch": "2025-12-25T05:31:02.274816",
        "meta_mean_motion": 15.51241036,
        "meta_eccentricity": 0.00027545,
        "meta_inclination": 51.6322,
        "meta_ra_of_asc_node": 80.4463,
        "meta_arg_of_pericenter": 265.4219,
        "meta_mean_anomaly": 94.6456,
        "meta_ephemeris_type": 0,
        "meta_classification_type": "U",
        "meta_norad_cat_id": 66906,
        "meta_element_set_no": 999,
        "meta_rev_at_epoch": 355,
        "meta_bstar": 0.00049047062,
        "meta_mean_motion_dot": 0.000289,
        "meta_mean_motion_ddot": 0,
        "tle_line1": "1 66906U 98067XS  25359.22988744  .00028900  00000+0  49047-3 0  9990",
        "tle_line2": "2 66906  51.6322  80.4463 0002754 265.4219  94.6456 15.51241036  3555"
      },
      "geometry": {
        "type": "Point",
        "coordinates": [
          -25.265207623150214,
          -50.89516343530642
        ]
      }
    },
    {
      "type": "Feature",
      "properties": {
        "norad_id": 66907,
        "name": "1998-067XT",
        "group": "stations",
        "lat": -15.84473095315905,
        "lon": 64.49582557229408,
        "alt_km": 408.2207633844946,
        "timestamp": "2025-12-25T19:00:38.111335+00:00",
        "meta_object_name": "1998-067XT",
        "meta_object_id": "1998-067XT",
        "meta_epoch": "2025-12-24T10:39:56.166048",
        "meta_mean_motion": 15.52879993,
        "meta_eccentricity": 0.00038856,
        "meta_inclination": 51.6313,
        "meta_ra_of_asc_node": 84.2012,
        "meta_arg_of_pericenter": 298.2919,
        "meta_mean_anomaly": 61.7678,
        "meta_ephemeris_type": 0,
        "meta_classification_type": "U",
        "meta_norad_cat_id": 66907,
        "meta_element_set_no": 999,
        "meta_rev_at_epoch": 343,
        "meta_bstar": 0.0010726177,
        "meta_mean_motion_dot": 0.00067981,
        "meta_mean_motion_ddot": 0,
        "tle_line1": "1 66907U 98067XT  25358.44440007  .00067981  00000+0  10726-2 0  9992",
        "tle_line2": "2 66907  51.6313  84.2012 0003885 298.2919  61.7678 15.52879993  3433"
      },
      "geometry": {
        "type": "Point",
        "coordinates": [
          64.49582557229408,
          -15.84473095315905
        ]
      }
    },
    {
      "type": "Feature",
      "properties": {
        "norad_id": 66908,
        "name": "1998-067XU",
        "group": "stations",
        "lat": -10.980608851262913,
        "lon": 68.6342686591095,
        "alt_km": 407.69202798456354,
        "timestamp": "2025-12-25T19:00:38.111345+00:00",
        "meta_object_name": "1998-067XU",
        "meta_object_id": "1998-067XU",
        "meta_epoch": "2025-12-24T10:38:25.805472",
        "meta_mean_motion": 15.52977314,
        "meta_eccentricity": 0.00038638,
        "meta_inclination": 51.6323,
        "meta_ra_of_asc_node": 84.1936,
        "meta_arg_of_pericenter": 296.7785,
        "meta_mean_anomaly": 63.2809,
        "meta_ephemeris_type": 0,
        "meta_classification_type": "U",
        "meta_norad_cat_id": 66908,
        "meta_element_set_no": 999,
        "meta_rev_at_epoch": 343,
        "meta_bstar": 0.0010585814,
        "meta_mean_motion_dot": 0.00067317,
        "meta_mean_motion_ddot": 0,
        "tle_line1": "1 66908U 98067XU  25358.44335423  .00067317  00000+0  10586-2 0  9995",
        "tle_line2": "2 66908  51.6323  84.1936 0003863 296.7785  63.2809 15.52977314  3438"
      },
      "geometry": {
        "type": "Point",
        "coordinates": [
          68.6342686591095,
          -10.980608851262913
        ]
      }
    }
  ]
}